CCSDS_OMM_VERS = 2.0
CREATION_DATE  = 
ORIGINATOR     = 

OBJECT_NAME    = HTV-X1
OBJECT_ID      = 2025-241A
CENTER_NAME    = EARTH
REF_FRAME      = TEME
TIME_SYSTEM    = UTC
MEAN_ELEMENT_THEORY = SGP/SGP4

EPOCH          = 2026-03-14T08:15:41.718240
MEAN_MOTION    = 15.22910005
ECCENTRICITY   = .0005732
INCLINATION    = 51.6357
RA_OF_ASC_NODE = 50.7099
ARG_OF_PERICENTER = 187.3443
MEAN_ANOMALY   = 172.7451

EPHEMERIS_TYPE = 0
CLASSIFICATION_TYPE = U
NORAD_CAT_ID   = 66174
ELEMENT_SET_NO = 999
REV_AT_EPOCH   = 2166
BSTAR          = .56794E-3
MEAN_MOTION_DOT = .13198E-3
MEAN_MOTION_DDOT = 0

CCSDS_OMM_VERS = 2.0
CREATION_DATE  = 
ORIGINATOR     = 

OBJECT_NAME    = SZ-21 MODULE
OBJECT_ID      = 2025-246C
CENTER_NAME    = EARTH
REF_FRAME      = TEME
TIME_SYSTEM    = UTC
MEAN_ELEMENT_THEORY = SGP/SGP4

EPOCH          = 2026-03-19T13:23:07.005408
MEAN_MOTION    = 15.69284939
ECCENTRICITY   = .0000386
INCLINATION    = 41.4733
RA_OF_ASC_NODE = 142.5807
ARG_OF_PERICENTER = 277.1861
MEAN_ANOMALY   = 82.8937

EPHEMERIS_TYPE = 0
CLASSIFICATION_TYPE = U
NORAD_CAT_ID   = 66515
ELEMENT_SET_NO = 999
REV_AT_EPOCH   = 1962
BSTAR          = .23011E-3
MEAN_MOTION_DOT = .27418E-3
MEAN_MOTION_DDOT = 0

CCSDS_OMM_VERS = 2.0
CREATION_DATE  = 
ORIGINATOR     = 

OBJECT_NAME    = SHENZHOU-22
OBJECT_ID      = 2025-272A
CENTER_NAME    = EARTH
REF_FRAME      = TEME
TIME_SYSTEM    = UTC
MEAN_ELEMENT_THEORY = SGP/SGP4

EPOCH          = 2026-03-19T15:10:53.399136
MEAN_MOTION    = 15.61180567
ECCENTRICITY   = .0005809
INCLINATION    = 41.4667
RA_OF_ASC_NODE = 147.6390
ARG_OF_PERICENTER = 335.1563
MEAN_ANOMALY   = 24.8996

EPHEMERIS_TYPE = 0
CLASSIFICATION_TYPE = U
NORAD_CAT_ID   = 66645
ELEMENT_SET_NO = 999
REV_AT_EPOCH   = 27916
BSTAR          = .23901E-3
MEAN_MOTION_DOT = .20528E-3
MEAN_MOTION_DDOT = 0

CCSDS_OMM_VERS = 2.0
CREATION_DATE  = 
ORIGINATOR     = 

OBJECT_NAME    = SOYUZ-MS 28
OBJECT_ID      = 2025-275A
CENTER_NAME    = EARTH
REF_FRAME      = TEME
TIME_SYSTEM    = UTC
MEAN_ELEMENT_THEORY = SGP/SGP4

EPOCH          = 2026-03-19T20:08:56.007168
MEAN_MOTION    = 15.48385427
ECCENTRICITY   = .0006242
INCLINATION    = 51.6344
RA_OF_ASC_NODE = 22.1830
ARG_OF_PERICENTER = 209.8635
MEAN_ANOMALY   = 150.1998

EPHEMERIS_TYPE = 0
CLASSIFICATION_TYPE = U
NORAD_CAT_ID   = 66664
ELEMENT_SET_NO = 999
REV_AT_EPOCH   = 55794
BSTAR          = .19745E-3
MEAN_MOTION_DOT = .10217E-3
MEAN_MOTION_DDOT = 0

CCSDS_OMM_VERS = 2.0
CREATION_DATE  = 
ORIGINATOR     = 

OBJECT_NAME    = DUPLEX
OBJECT_ID      = 1998-067XS
CENTER_NAME    = EARTH
REF_FRAME      = TEME
TIME_SYSTEM    = UTC
MEAN_ELEMENT_THEORY = SGP/SGP4

EPOCH          = 2026-03-19T20:36:06.507360
MEAN_MOTION    = 15.56839704
ECCENTRICITY   = .0003037
INCLINATION    = 51.6307
RA_OF_ASC_NODE = 18.5628
ARG_OF_PERICENTER = 154.8849
MEAN_ANOMALY   = 205.2291

EPHEMERIS_TYPE = 0
CLASSIFICATION_TYPE = U
NORAD_CAT_ID   = 66906
ELEMENT_SET_NO = 999
REV_AT_EPOCH   = 1671
BSTAR          = .35281E-3
MEAN_MOTION_DOT = .254E-3
MEAN_MOTION_DDOT = 0

CCSDS_OMM_VERS = 2.0
CREATION_DATE  = 
ORIGINATOR     = 

OBJECT_NAME    = ISS OBJECT XT
OBJECT_ID      = 1998-067XT
CENTER_NAME    = EARTH
REF_FRAME      = TEME
TIME_SYSTEM    = UTC
MEAN_ELEMENT_THEORY = SGP/SGP4

EPOCH          = 2026-03-19T19:47:02.454144
MEAN_MOTION    = 15.72578849
ECCENTRICITY   = .0005147
INCLINATION    = 51.6264
RA_OF_ASC_NODE = 13.8111
ARG_OF_PERICENTER = 145.9333
MEAN_ANOMALY   = 214.1997

EPHEMERIS_TYPE = 0
CLASSIFICATION_TYPE = U
NORAD_CAT_ID   = 66907
ELEMENT_SET_NO = 999
REV_AT_EPOCH   = 1677
BSTAR          = .10449E-2
MEAN_MOTION_DOT = .145011E-2
MEAN_MOTION_DDOT = 0

CCSDS_OMM_VERS = 2.0
CREATION_DATE  = 
ORIGINATOR     = 

OBJECT_NAME    = ISS OBJECT XU
OBJECT_ID      = 1998-067XU
CENTER_NAME    = EARTH
REF_FRAME      = TEME
TIME_SYSTEM    = UTC
MEAN_ELEMENT_THEORY = SGP/SGP4

EPOCH          = 2026-03-19T05:59:38.277312
MEAN_MOTION    = 15.72572321
ECCENTRICITY   = .00053977
INCLINATION    = 51.6254
RA_OF_ASC_NODE = 16.7197
ARG_OF_PERICENTER = 143.2068
MEAN_ANOMALY   = 216.9301

EPHEMERIS_TYPE = 0
CLASSIFICATION_TYPE = U
NORAD_CAT_ID   = 66908
ELEMENT_SET_NO = 999
REV_AT_EPOCH   = 1668
BSTAR          = .10071021E-2
MEAN_MOTION_DOT = .139626E-2
MEAN_MOTION_DDOT = 0

CCSDS_OMM_VERS = 2.0
CREATION_DATE  = 
ORIGINATOR     = 

OBJECT_NAME    = SILVERSAT
OBJECT_ID      = 1998-067XV
CENTER_NAME    = EARTH
REF_FRAME      = TEME
TIME_SYSTEM    = UTC
MEAN_ELEMENT_THEORY = SGP/SGP4

EPOCH          = 2026-03-19T19:13:45.217056
MEAN_MOTION    = 15.76583091
ECCENTRICITY   = .0005822
INCLINATION    = 51.6240
RA_OF_ASC_NODE = 12.8961
ARG_OF_PERICENTER = 149.3887
MEAN_ANOMALY   = 210.7453

EPHEMERIS_TYPE = 0
CLASSIFICATION_TYPE = U
NORAD_CAT_ID   = 66909
ELEMENT_SET_NO = 999
REV_AT_EPOCH   = 1678
BSTAR          = .11451E-2
MEAN_MOTION_DOT = .190248E-2
MEAN_MOTION_DDOT = 0

CCSDS_OMM_VERS = 2.0
CREATION_DATE  = 
ORIGINATOR     = 

OBJECT_NAME    = ISS OBJECT XW
OBJECT_ID      = 1998-067XW
CENTER_NAME    = EARTH
REF_FRAME      = TEME
TIME_SYSTEM    = UTC
MEAN_ELEMENT_THEORY = SGP/SGP4

EPOCH          = 2026-03-19T06:03:12.658176
MEAN_MOTION    = 15.71452835
ECCENTRICITY   = .00057567
INCLINATION    = 51.6251
RA_OF_ASC_NODE = 16.7321
ARG_OF_PERICENTER = 144.7614
MEAN_ANOMALY   = 215.3766

EPHEMERIS_TYPE = 0
CLASSIFICATION_TYPE = U
NORAD_CAT_ID   = 66910
ELEMENT_SET_NO = 999
REV_AT_EPOCH   = 1668
BSTAR          = .92850308E-3
MEAN_MOTION_DOT = .122466E-2
MEAN_MOTION_DDOT = 0

CCSDS_OMM_VERS = 2.0
CREATION_DATE  = 
ORIGINATOR     = 

OBJECT_NAME    = ISS OBJECT XX
OBJECT_ID      = 1998-067XX
CENTER_NAME    = EARTH
REF_FRAME      = TEME
TIME_SYSTEM    = UTC
MEAN_ELEMENT_THEORY = SGP/SGP4

EPOCH          = 2026-03-19T20:05:20.840064
MEAN_MOTION    = 15.81078995
ECCENTRICITY   = .0007499
INCLINATION    = 51.6211
RA_OF_ASC_NODE = 11.6083
ARG_OF_PERICENTER = 153.2319
MEAN_ANOMALY   = 206.9071

EPHEMERIS_TYPE = 0
CLASSIFICATION_TYPE = U
NORAD_CAT_ID   = 66911
ELEMENT_SET_NO = 999
REV_AT_EPOCH   = 1679
BSTAR          = .12438E-2
MEAN_MOTION_DOT = .255412E-2
MEAN_MOTION_DDOT = 0

CCSDS_OMM_VERS = 2.0
CREATION_DATE  = 
ORIGINATOR     = 

OBJECT_NAME    = ISS OBJECT XY
OBJECT_ID      = 1998-067XY
CENTER_NAME    = EARTH
REF_FRAME      = TEME
TIME_SYSTEM    = UTC
MEAN_ELEMENT_THEORY = SGP/SGP4

EPOCH          = 2026-03-19T20:44:29.713920
MEAN_MOTION    = 15.65608393
ECCENTRICITY   = .0003727
INCLINATION    = 51.6285
RA_OF_ASC_NODE = 15.5932
ARG_OF_PERICENTER = 149.4473
MEAN_ANOMALY   = 210.6741

EPHEMERIS_TYPE = 0
CLASSIFICATION_TYPE = U
NORAD_CAT_ID   = 66912
ELEMENT_SET_NO = 999
REV_AT_EPOCH   = 1674
BSTAR          = .7658E-3
MEAN_MOTION_DOT = .78834E-3
MEAN_MOTION_DDOT = 0

CCSDS_OMM_VERS = 2.0
CREATION_DATE  = 
ORIGINATOR     = 

OBJECT_NAME    = KNACKSAT-2
OBJECT_ID      = 1998-067XZ
CENTER_NAME    = EARTH
REF_FRAME      = TEME
TIME_SYSTEM    = UTC
MEAN_ELEMENT_THEORY = SGP/SGP4

EPOCH          = 2026-03-19T20:02:40.656192
MEAN_MOTION    = 15.52625615
ECCENTRICITY   = .0009735
INCLINATION    = 51.6325
RA_OF_ASC_NODE = 21.4061
ARG_OF_PERICENTER = 221.7731
MEAN_ANOMALY   = 138.2517

EPHEMERIS_TYPE = 0
CLASSIFICATION_TYPE = U
NORAD_CAT_ID   = 67683
ELEMENT_SET_NO = 999
REV_AT_EPOCH   = 636
BSTAR          = .51432E-3
MEAN_MOTION_DOT = .31953E-3
MEAN_MOTION_DDOT = 0

